{
  "type": "FeatureCollection",
  "features": [
    {
      "type": "Feature",
      "properties": {
        "norad_id": 34299,
        "name": "COSMOS 2251 DEB",
        "group": "cosmos-2251-debris",
        "lat": 56.17674494542882,
        "lon": 23.425516975230085,
        "alt_km": 371.2246354880617,
        "timestamp": "2025-12-02T07:10:09.510212+00:00",
        "meta_object_name": "COSMOS 2251 DEB",
        "meta_object_id": "1993-036MV",
        "meta_epoch": "2025-12-01T12:24:56.829888",
        "meta_mean_motion": 15.5728205,
        "meta_eccentricity": 0.00253274,
        "meta_inclination": 73.9844,
        "meta_ra_of_asc_node": 359.7784,
        "meta_arg_of_pericenter": 65.4109,
        "meta_mean_anomaly": 294.9743,
        "meta_ephemeris_type": 0,
        "meta_classification_type": "U",
        "meta_norad_cat_id": 34299,
        "meta_element_set_no": 999,
        "meta_rev_at_epoch": 88835,
        "meta_bstar": 0.0047143619,
        "meta_mean_motion_dot": 0.00364724,
        "meta_mean_motion_ddot": 0,
        "tle_line1": "1 34299U 93036MV  25335.51732442  .00364724  00000+0  47144-2 0  9991",
        "tle_line2": "2 34299  73.9844 359.7784 0025327  65.4109 294.9743 15.57282050888356"
      },
      "geometry": {
        "type": "Point",
        "coordinates": [
          23.425516975230085,
          56.17674494542882
        ]
      }
    },
    {
      "type": "Feature",
      "properties": {
        "norad_id": 34301,
        "name": "COSMOS 2251 DEB",
        "group": "cosmos-2251-debris",
        "lat": -70.62562134427958,
        "lon": 62.08616960778354,
        "alt_km": 615.9147932140413,
        "timestamp": "2025-12-02T07:10:09.510222+00:00",
        "meta_object_name": "COSMOS 2251 DEB",
        "meta_object_id": "1993-036MX",
        "meta_epoch": "2025-12-01T15:41:37.720320",
        "meta_mean_motion": 14.83714499,
        "meta_eccentricity": 0.00125628,
        "meta_inclination": 74.007,
        "meta_ra_of_asc_node": 188.7191,
        "meta_arg_of_pericenter": 247.2878,
        "meta_mean_anomaly": 168.8206,
        "meta_ephemeris_type": 0,
        "meta_classification_type": "U",
        "meta_norad_cat_id": 34301,
        "meta_element_set_no": 999,
        "meta_rev_at_epoch": 88236,
        "meta_bstar": 0.0022862732,
        "meta_mean_motion_dot": 0.0001895,
        "meta_mean_motion_ddot": 0,
        "tle_line1": "1 34301U 93036MX  25335.65390880  .00018950  00000+0  22863-2 0  9994",
        "tle_line2": "2 34301  74.0070 188.7191 0012562 247.2878 168.8206 14.83714499882368"
      },
      "geometry": {
        "type": "Point",
        "coordinates": [
          62.08616960778354,
          -70.62562134427958
        ]
      }
    },
    {
      "type": "Feature",
      "properties": {
        "norad_id": 34302,
        "name": "COSMOS 2251 DEB",
        "group": "cosmos-2251-debris",
        "lat": -48.953314577415306,
        "lon": -18.30766225936896,
        "alt_km": 802.6059296372096,
        "timestamp": "2025-12-02T07:10:09.510233+00:00",
        "meta_object_name": "COSMOS 2251 DEB",
        "meta_object_id": "1993-036MY",
        "meta_epoch": "2025-12-01T20:38:31.255008",
        "meta_mean_motion": 14.39262496,
        "meta_eccentricity": 0.0078124,
        "meta_inclination": 74.1772,
        "meta_ra_of_asc_node": 143.4872,
        "meta_arg_of_pericenter": 1.8894,
        "meta_mean_anomaly": 118.542,
        "meta_ephemeris_type": 0,
        "meta_classification_type": "U",
        "meta_norad_cat_id": 34302,
        "meta_element_set_no": 999,
        "meta_rev_at_epoch": 87564,
        "meta_bstar": 0.00066813,
        "meta_mean_motion_dot": 2.123e-05,
        "meta_mean_motion_ddot": 0,
        "tle_line1": "1 34302U 93036MY  25335.86008397  .00002123  00000+0  66813-3 0  9996",
        "tle_line2": "2 34302  74.1772 143.4872 0078124   1.8894 118.5420 14.39262496875640"
      },
      "geometry": {
        "type": "Point",
        "coordinates": [
          -18.30766225936896,
          -48.953314577415306
        ]
      }
    },
    {
      "type": "Feature",
      "properties": {
        "norad_id": 34303,
        "name": "COSMOS 2251 DEB",
        "group": "cosmos-2251-debris",
        "lat": -29.336790724971944,
        "lon": 137.10777881284682,
        "alt_km": 766.6290664188055,
        "timestamp": "2025-12-02T07:10:09.510243+00:00",
        "meta_object_name": "COSMOS 2251 DEB",
        "meta_object_id": "1993-036MZ",
        "meta_epoch": "2025-12-01T09:26:52.854720",
        "meta_mean_motion": 14.54227782,
        "meta_eccentricity": 0.01348927,
        "meta_inclination": 74.0049,
        "meta_ra_of_asc_node": 309.5449,
        "meta_arg_of_pericenter": 90.8284,
        "meta_mean_anomaly": 62.1477,
        "meta_ephemeris_type": 0,
        "meta_classification_type": "U",
        "meta_norad_cat_id": 34303,
        "meta_element_set_no": 999,
        "meta_rev_at_epoch": 87797,
        "meta_bstar": 0.0012731363,
        "meta_mean_motion_dot": 6.064e-05,
        "meta_mean_motion_ddot": 0,
        "tle_line1": "1 34303U 93036MZ  25335.39366730  .00006064  00000+0  12731-2 0  9990",
        "tle_line2": "2 34303  74.0049 309.5449 0134892  90.8284  62.1477 14.54227782877978"
      },
      "geometry": {
        "type": "Point",
        "coordinates": [
          137.10777881284682,
          -29.336790724971944
        ]
      }
    },
    {
      "type": "Feature",
      "properties": {
        "norad_id": 34304,
        "name": "COSMOS 2251 DEB",
        "group": "cosmos-2251-debris",
        "lat": -39.48754085787163,
        "lon": -24.4837439167682,
        "alt_km": 725.9269806314514,
        "timestamp": "2025-12-02T07:10:09.510253+00:00",
        "meta_object_name": "COSMOS 2251 DEB",
        "meta_object_id": "1993-036NA",
        "meta_epoch": "2025-12-01T20:40:35.505120",
        "meta_mean_motion": 14.3769965,
        "meta_eccentricity": 0.0128837,
        "meta_inclination": 74.012,
        "meta_ra_of_asc_node": 142.6577,
        "meta_arg_of_pericenter": 282.6807,
        "meta_mean_anomaly": 198.009,
        "meta_ephemeris_type": 0,
        "meta_classification_type": "U",
        "meta_norad_cat_id": 34304,
        "meta_element_set_no": 999,
        "meta_rev_at_epoch": 87140,
        "meta_bstar": 0.0012738,
        "meta_mean_motion_dot": 4.188e-05,
        "meta_mean_motion_ddot": 0,
        "tle_line1": "1 34304U 93036NA  25335.86152205  .00004188  00000+0  12738-2 0  9995",
        "tle_line2": "2 34304  74.0120 142.6577 0128837 282.6807 198.0090 14.37699650871401"
      },
      "geometry": {
        "type": "Point",
        "coordinates": [
          -24.4837439167682,
          -39.48754085787163
        ]
      }
    },
    {
      "type": "Feature",
      "properties": {
        "norad_id": 34307,
        "name": "COSMOS 2251 DEB",
        "group": "cosmos-2251-debris",
        "lat": -34.534988196789655,
        "lon": -41.47680620131621,
        "alt_km": 1336.7086515675019,
        "timestamp": "2025-12-02T07:10:09.510263+00:00",
        "meta_object_name": "COSMOS 2251 DEB",
        "meta_object_id": "1993-036ND",
        "meta_epoch": "2025-12-01T10:50:07.085760",
        "meta_mean_motion": 13.54297711,
        "meta_eccentricity": 0.03924464,
        "meta_inclination": 74.0532,
        "meta_ra_of_asc_node": 331.2297,
        "meta_arg_of_pericenter": 164.6376,
        "meta_mean_anomaly": 348.6058,
        "meta_ephemeris_type": 0,
        "meta_classification_type": "U",
        "meta_norad_cat_id": 34307,
        "meta_element_set_no": 999,
        "meta_rev_at_epoch": 82709,
        "meta_bstar": 0.00066363346,
        "meta_mean_motion_dot": 7.19e-06,
        "meta_mean_motion_ddot": 0,
        "tle_line1": "1 34307U 93036ND  25335.45147090  .00000719  00000+0  66363-3 0  9999",
        "tle_line2": "2 34307  74.0532 331.2297 0392446 164.6376 348.6058 13.54297711827098"
      },
      "geometry": {
        "type": "Point",
        "coordinates": [
          -41.47680620131621,
          -34.534988196789655
        ]
      }
    },
    {
      "type": "Feature",
      "properties": {
        "norad_id": 34313,
        "name": "COSMOS 2251 DEB",
        "group": "cosmos-2251-debris",
        "lat": 73.96148184390441,
        "lon": 56.865012879491154,
        "alt_km": 501.8134825722682,
        "timestamp": "2025-12-02T07:10:09.510273+00:00",
        "meta_object_name": "COSMOS 2251 DEB",
        "meta_object_id": "1993-036NK",
        "meta_epoch": "2025-12-01T10:11:34.135296",
        "meta_mean_motion": 15.16446289,
        "meta_eccentricity": 0.00100742,
        "meta_inclination": 73.9727,
        "meta_ra_of_asc_node": 329.2209,
        "meta_arg_of_pericenter": 97.499,
        "meta_mean_anomaly": 262.735,
        "meta_ephemeris_type": 0,
        "meta_classification_type": "U",
        "meta_norad_cat_id": 34313,
        "meta_element_set_no": 999,
        "meta_rev_at_epoch": 88893,
        "meta_bstar": 0.0042286057,
        "meta_mean_motion_dot": 0.00083298,
        "meta_mean_motion_ddot": 0,
        "tle_line1": "1 34313U 93036NK  25335.42470064  .00083298  00000+0  42286-2 0  9993",
        "tle_line2": "2 34313  73.9727 329.2209 0010074  97.4990 262.7350 15.16446289888935"
      },
      "geometry": {
        "type": "Point",
        "coordinates": [
          56.865012879491154,
          73.96148184390441
        ]
      }
    }
  ]
}